      2.10          N: GNSS NAV DATA                        RINEX VERSION / TYPE
fic2rin                                 09/07/2021 00:17:13 PGM / RUN BY / DATE
                                                            END OF HEADER
10 21  9  6  2  0  0.0-1.973854377866e-04-7.730704965070e-12 0.000000000000e+00
    4.200000000000e+01-9.337500000000e+01 4.423398538018e-09 5.643820667670e-01
   -4.876405000687e-06 6.880966597237e-03 3.911554813385e-06 5.153679082870e+03
    9.360000000000e+04-4.284083843231e-08 2.003475360631e+00 1.247972249985e-07
    9.702118564182e-01 3.097500000000e+02-2.582807489030e+00-8.331061307858e-09
   -2.946551307118e-10 1.000000000000e+00 2.174000000000e+03 0.000000000000e+00
    2.400000000000e+00 0.000000000000e+00 2.328306436539e-09 4.200000000000e+01
    8.640000000000e+04 4.000000000000e+00
15 21  9  6  2  0  0.0-1.231636852026e-04 2.728484105319e-12 0.000000000000e+00
    5.600000000000e+01-8.437500000000e+01 4.823058042584e-09-2.414587724059e+00
   -4.665926098824e-06 1.361320714932e-02 1.185946166515e-05 5.153681520462e+03
    9.360000000000e+04 1.788139343262e-07 2.933747054821e+00-8.009374141693e-08
    9.298467837823e-01 1.282500000000e+02 1.021069646072e+00-7.931044645558e-09
    2.528676758108e-10 1.000000000000e+00 2.174000000000e+03 0.000000000000e+00
    2.400000000000e+00 0.000000000000e+00-1.071020960808e-08 5.600000000000e+01
    8.640000000000e+04 4.000000000000e+00
31 21  9  6  2  0  0.0-1.382320187986e-04-2.046363078989e-12 0.000000000000e+00
    7.900000000000e+01 5.181250000000e+01 5.148071580702e-09 1.453000014026e+00
    2.942979335785e-06 1.014271681197e-02 6.273388862610e-06 5.153599113464e+03
    9.360000000000e+04 3.725290298462e-08-2.158348929816e+00 1.974403858185e-07
    9.555042895490e-01 2.560312500000e+02 2.879969287995e-01-8.455709357092e-09
    3.625151002090e-10 1.000000000000e+00 2.174000000000e+03 0.000000000000e+00
    2.400000000000e+00 0.000000000000e+00-1.303851604462e-08 7.900000000000e+01
    8.640000000000e+04 4.000000000000e+00
29 21  9  6  2  0  0.0-4.073646850884e-04-5.684341886081e-12 0.000000000000e+00
    9.100000000000e+01 5.693750000000e+01 3.711940331500e-09-1.495005066105e+00
    2.933666110039e-06 1.961215166375e-03 1.263059675694e-05 5.153588073730e+03
    9.360000000000e+04-1.862645149231e-08-1.489137960002e-02 2.048909664154e-08
    9.836237357625e-01 1.479062500000e+02 2.326903483590e+00-7.567100914412e-09
   -1.335769925893e-10 1.000000000000e+00 2.174000000000e+03 0.000000000000e+00
    3.400000000000e+00 0.000000000000e+00-1.024454832077e-08 9.100000000000e+01
    8.640000000000e+04 4.000000000000e+00
30 21  9  6  2  0  0.0-4.699341952801e-04-3.865352482535e-12 0.000000000000e+00
    6.000000000000e+01 4.690625000000e+01 5.637020518817e-09 1.795946129599e+00
    2.505257725716e-06 5.357657209970e-03 5.986541509628e-06 5.153645269394e+03
    9.360000000000e+04-5.960464477539e-08-2.160198801431e+00 1.154839992523e-07
    9.364172623605e-01 2.530312500000e+02-2.731100879028e+00-8.614644548810e-09
    5.168072413817e-10 1.000000000000e+00 2.174000000000e+03 0.000000000000e+00
    2.400000000000e+00 0.000000000000e+00 3.725290298462e-09 6.000000000000e+01
    8.640000000000e+04 4.000000000000e+00
27 21  9  6  2  0  0.0-1.888629049063e-04-5.343281372916e-12 0.000000000000e+00
    8.500000000000e+01 6.328125000000e+01 3.810873023872e-09-1.562441085234e+00
    3.252178430557e-06 9.488823241554e-03 1.229532063007e-05 5.153646411896e+03
    9.360000000000e+04 1.806765794754e-07-8.888662161600e-02-1.434236764908e-07
    9.754065702617e-01 1.530937500000e+02 6.356051375395e-01-7.517455989359e-09
   -1.985797002130e-10 1.000000000000e+00 2.174000000000e+03 0.000000000000e+00
    2.400000000000e+00 0.000000000000e+00 1.862645149231e-09 8.500000000000e+01
    8.640000000000e+04 4.000000000000e+00
22 21  9  6  2  0  0.0-5.202577449381e-04 9.322320693173e-12 0.000000000000e+00
    8.900000000000e+01-9.134375000000e+01 5.195573559350e-09-2.617935303239e+00
   -4.593282938004e-06 6.767244660296e-03 2.643093466759e-06 5.153742761612e+03
    9.360000000000e+04-2.235174179077e-08 1.903249129943e+00 1.043081283569e-07
    9.360134794156e-01 3.115312500000e+02-8.974315722558e-01-8.602501185847e-09
   -2.342954736326e-10 1.000000000000e+00 2.174000000000e+03 0.000000000000e+00
    2.400000000000e+00 0.000000000000e+00-1.769512891769e-08 8.900000000000e+01
    8.640000000000e+04 4.000000000000e+00
32 21  9  6  2  0  0.0 1.990236341953e-06-3.183231456205e-12 0.000000000000e+00
    9.100000000000e+01-5.015625000000e+01 4.313036798152e-09-7.968113279901e-01
   -2.488493919373e-06 5.075066583231e-03 1.215748488903e-05 5.153724212646e+03
    9.360000000000e+04 6.519258022308e-08 3.045909656900e+00 7.823109626770e-08
    9.580669255730e-01 1.454375000000e+02-2.372199527884e+00-7.883542666910e-09
    2.317953694933e-10 1.000000000000e+00 2.174000000000e+03 0.000000000000e+00
    2.400000000000e+00 0.000000000000e+00 4.656612873077e-10 9.100000000000e+01
    8.640000000000e+04 4.000000000000e+00
24 21  9  6  2  0  0.0 2.278601750731e-04 9.208633855451e-12 0.000000000000e+00
    5.300000000000e+01 5.287500000000e+01 5.379152634727e-09 2.897676132436e+00
    2.635642886162e-06 1.148665358778e-02 7.245689630508e-06 5.153710258484e+03
    9.360000000000e+04-7.078051567078e-08-2.255831849708e+00-1.899898052216e-07
    9.347429175088e-01 2.260312500000e+02 7.534261326626e-01-8.240343243372e-09
    5.960962583733e-10 1.000000000000e+00 2.174000000000e+03 0.000000000000e+00
    2.400000000000e+00 0.000000000000e+00 2.793967723846e-09 5.300000000000e+01
    8.640000000000e+04 4.000000000000e+00
20 21  9  6  2  0  0.0 5.192835815251e-04-2.273736754432e-13 0.000000000000e+00
    8.200000000000e+01-8.543750000000e+01 5.182715880919e-09-2.571758156553e+00
   -4.306435585022e-06 5.510674789548e-03 1.883134245872e-06 5.153648399353e+03
    9.360000000000e+04-8.195638656616e-08 1.857051771580e+00 2.607703208923e-08
    9.392911883339e-01 3.312187500000e+02 2.977943564034e+00-8.702148193688e-09
   -2.067943280995e-10 1.000000000000e+00 2.174000000000e+03 0.000000000000e+00
    2.400000000000e+00 0.000000000000e+00-8.381903171539e-09 8.200000000000e+01
    8.640000000000e+04 4.000000000000e+00
17 21  9  6  2  0  0.0 5.004489794374e-04 5.684341886081e-12 0.000000000000e+00
    5.900000000000e+01 8.156250000000e+01 3.720869274855e-09-1.478552472034e+00
    4.250556230545e-06 1.349948591087e-02 1.274608075619e-05 5.153664632797e+03
    9.360000000000e+04-4.656612873077e-08-2.754620761583e-02 3.501772880554e-07
    9.817020582769e-01 1.483750000000e+02-1.558333468741e+00-7.649961508746e-09
   -2.203663219990e-10 1.000000000000e+00 2.174000000000e+03 0.000000000000e+00
    3.400000000000e+00 0.000000000000e+00-1.117587089539e-08 5.900000000000e+01
    8.640000000000e+04 4.000000000000e+00
23 21  9  6  2  0  0.0 6.121443584561e-05-4.888534022029e-12 0.000000000000e+00
    6.500000000000e+01-9.731250000000e+01 4.568761735836e-09 2.122976925322e+00
   -5.161389708519e-06 1.625568489544e-03 3.201887011528e-06 5.153671907425e+03
    9.360000000000e+04-9.313225746155e-09 1.979453407517e+00-9.313225746155e-09
    9.652114546685e-01 3.191875000000e+02 2.664211922503e+00-8.322846679971e-09
   -2.639395655709e-10 1.000000000000e+00 2.174000000000e+03 0.000000000000e+00
    2.400000000000e+00 0.000000000000e+00-8.381903171539e-09 5.770000000000e+02
    8.640000000000e+04 4.000000000000e+00
18 21  9  6  2  0  0.0 3.255032934248e-04-4.092726157978e-12 0.000000000000e+00
    4.700000000000e+01 9.662500000000e+01 4.452328314488e-09 2.857153686388e+00
    5.023553967476e-06 1.900451374240e-03 3.509223461151e-06 5.153649217606e+03
    9.360000000000e+04-4.097819328308e-08 9.794136813568e-01 2.980232238770e-08
    9.689486266567e-01 3.160937500000e+02 2.934951087602e+00-8.264272811563e-09
    3.314423773340e-10 1.000000000000e+00 2.174000000000e+03 0.000000000000e+00
    2.400000000000e+00 0.000000000000e+00-8.381903171539e-09 3.030000000000e+02
    8.640000000000e+04 4.000000000000e+00
14 21  9  6  2  0  0.0 7.590278983116e-06-8.299139153678e-12 0.000000000000e+00
    1.940000000000e+02-4.271875000000e+01 5.056996358482e-09 1.148398902121e+00
   -2.181157469749e-06 1.080395071767e-03 6.614252924919e-06 5.153639900208e+03
    9.360000000000e+04 6.146728992462e-08-1.092556728207e+00-6.332993507385e-08
    9.555014748946e-01 2.467187500000e+02 3.097577768582e+00-8.321775206769e-09
   -6.907430579352e-10 1.000000000000e+00 2.174000000000e+03 0.000000000000e+00
    2.400000000000e+00 0.000000000000e+00-7.916241884232e-09 9.620000000000e+02
    8.640000000000e+04 4.000000000000e+00
28 21  9  6  2  0  0.0 5.065076984465e-04-6.934897101019e-12 0.000000000000e+00
    8.100000000000e+01-3.856250000000e+01 4.709124725375e-09-1.003343643256e+00
   -1.993030309677e-06 1.746890065260e-02 7.612630724907e-06 5.153715457916e+03
    9.360000000000e+04-2.942979335785e-07-1.041582937927e+00-2.793967723846e-08
    9.712212859850e-01 2.410312500000e+02-1.338610953034e+00-8.367134239012e-09
   -6.285976121851e-10 1.000000000000e+00 2.174000000000e+03 0.000000000000e+00
    4.850000000000e+00 6.300000000000e+01-1.117587089539e-08 8.100000000000e+01
    8.640000000000e+04 4.000000000000e+00
28 21  9  6  1 59 44.0 5.064941942692e-04-7.048583938740e-12 0.000000000000e+00
    3.000000000000e+00-3.856250000000e+01 4.709124725375e-09-1.005677279935e+00
   -1.993030309677e-06 1.746889820788e-02 7.612630724907e-06 5.153715448380e+03
    9.358400000000e+04-2.942979335785e-07-1.041582775543e+00-2.793967723846e-08
    9.712213006141e-01 2.410312500000e+02-1.338610963274e+00-8.367134239012e-09
   -6.285976121851e-10 1.000000000000e+00 2.174000000000e+03 0.000000000000e+00
    2.400000000000e+00 6.300000000000e+01-1.117587089539e-08 3.000000000000e+00
    8.715000000000e+04 4.000000000000e+00
